[{"OBJECT_NAME":"ONEWEB-0035","OBJECT_ID":"2020-008N","EPOCH":"2025-09-30T00:14:16.660320","MEAN_MOTION":13.10375491,"ECCENTRICITY":0.0001615,"INCLINATION":87.8738,"RA_OF_ASC_NODE":88.1657,"ARG_OF_PERICENTER":92.9182,"MEAN_ANOMALY":267.213,"EPHEMERIS_TYPE":0,"CLASSIFICATION_TYPE":"U","NORAD_CAT_ID":45143,"ELEMENT_SET_NO":999,"REV_AT_EPOCH":27386,"BSTAR":0.001797264,"MEAN_MOTION_DOT":6.4e-6,"MEAN_MOTION_DDOT":0},{"OBJECT_NAME":"ONEWEB-0036","OBJECT_ID":"2020-008P","EPOCH":"2025-09-30T05:29:47.191488","MEAN_MOTION":13.10376886,"ECCENTRICITY":0.00016603,"INCLINATION":87.8757,"RA_OF_ASC_NODE":88.0728,"ARG_OF_PERICENTER":78.0305,"MEAN_ANOMALY":282.1008,"EPHEMERIS_TYPE":0,"CLASSIFICATION_TYPE":"U","NORAD_CAT_ID":45144,"ELEMENT_SET_NO":999,"REV_AT_EPOCH":27432,"BSTAR":0.00040101236,"MEAN_MOTION_DOT":1.53e-6,"MEAN_MOTION_DDOT":0},{"OBJECT_NAME":"ONEWEB-0038","OBJECT_ID":"2020-008Q","EPOCH":"2025-09-29T23:55:31.015200","MEAN_MOTION":13.11416725,"ECCENTRICITY":5.065e-5,"INCLINATION":87.8793,"RA_OF_ASC_NODE":72.8856,"ARG_OF_PERICENTER":192.021,"MEAN_ANOMALY":168.0906,"EPHEMERIS_TYPE":0,"CLASSIFICATION_TYPE":"U","NORAD_CAT_ID":45145,"ELEMENT_SET_NO":999,"REV_AT_EPOCH":27622,"BSTAR":-0.000198146,"MEAN_MOTION_DOT":-5.8e-7,"MEAN_MOTION_DDOT":0},{"OBJECT_NAME":"ONEWEB-0039","OBJECT_ID":"2020-008R","EPOCH":"2025-09-30T05:04:42.503520","MEAN_MOTION":13.10393184,"ECCENTRICITY":0.00014988,"INCLINATION":87.8744,"RA_OF_ASC_NODE":88.0926,"ARG_OF_PERICENTER":72.4244,"MEAN_ANOMALY":287.7047,"EPHEMERIS_TYPE":0,"CLASSIFICATION_TYPE":"U","NORAD_CAT_ID":45146,"ELEMENT_SET_NO":999,"REV_AT_EPOCH":27411,"BSTAR":-0.0017576111,"MEAN_MOTION_DOT":-6.01e-6,"MEAN_MOTION_DDOT":0},{"OBJECT_NAME":"ONEWEB-0040","OBJECT_ID":"2020-008S","EPOCH":"2025-09-30T04:55:06.061728","MEAN_MOTION":13.10372301,"ECCENTRICITY":0.00015576,"INCLINATION":87.874,"RA_OF_ASC_NODE":88.1242,"ARG_OF_PERICENTER":88.4561,"MEAN_ANOMALY":271.6745,"EPHEMERIS_TYPE":0,"CLASSIFICATION_TYPE":"U","NORAD_CAT_ID":45147,"ELEMENT_SET_NO":999,"REV_AT_EPOCH":27381,"BSTAR":-0.0015530311,"MEAN_MOTION_DOT":-5.29e-6,"MEAN_MOTION_DDOT":0},{"OBJECT_NAME":"ONEWEB-0043","OBJECT_ID":"2020-008U","EPOCH":"2025-09-30T04:57:30.341952","MEAN_MOTION":13.10373073,"ECCENTRICITY":0.00017006,"INCLINATION":87.8736,"RA_OF_ASC_NODE":88.1059,"ARG_OF_PERICENTER":73.8436,"MEAN_ANOMALY":286.2879,"EPHEMERIS_TYPE":0,"CLASSIFICATION_TYPE":"U","NORAD_CAT_ID":45149,"ELEMENT_SET_NO":999,"REV_AT_EPOCH":27413,"BSTAR":-0.0018508035,"MEAN_MOTION_DOT":-6.33e-6,"MEAN_MOTION_DDOT":0},{"OBJECT_NAME":"ONEWEB-0044","OBJECT_ID":"2020-008V","EPOCH":"2025-09-30T05:38:09.693024","MEAN_MOTION":13.10376575,"ECCENTRICITY":0.00016348,"INCLINATION":87.8742,"RA_OF_ASC_NODE":88.0914,"ARG_OF_PERICENTER":79.2881,"MEAN_ANOMALY":280.8431,"EPHEMERIS_TYPE":0,"CLASSIFICATION_TYPE":"U","NORAD_CAT_ID":45150,"ELEMENT_SET_NO":999,"REV_AT_EPOCH":27443,"BSTAR":0.0013437811,"MEAN_MOTION_DOT":4.82e-6,"MEAN_MOTION_DDOT":0},{"OBJECT_NAME":"ONEWEB-0045","OBJECT_ID":"2020-008W","EPOCH":"2025-09-29T23:48:00.031392","MEAN_MOTION":13.11418375,"ECCENTRICITY":0.00014404,"INCLINATION":87.8805,"RA_OF_ASC_NODE":72.862,"ARG_OF_PERICENTER":86.3133,"MEAN_ANOMALY":273.816,"EPHEMERIS_TYPE":0,"CLASSIFICATION_TYPE":"U","NORAD_CAT_ID":45151,"ELEMENT_SET_NO":999,"REV_AT_EPOCH":27630,"BSTAR":0.00046586615,"MEAN_MOTION_DOT":1.78e-6,"MEAN_MOTION_DDOT":0},{"OBJECT_NAME":"ONEWEB-0047","OBJECT_ID":"2020-008X","EPOCH":"2025-09-30T05:28:35.082048","MEAN_MOTION":13.10378398,"ECCENTRICITY":0.00015577,"INCLINATION":87.8744,"RA_OF_ASC_NODE":88.1031,"ARG_OF_PERICENTER":86.1635,"MEAN_ANOMALY":273.9671,"EPHEMERIS_TYPE":0,"CLASSIFICATION_TYPE":"U","NORAD_CAT_ID":45152,"ELEMENT_SET_NO":999,"REV_AT_EPOCH":27415,"BSTAR":5.4760847e-5,"MEAN_MOTION_DOT":3.2e-7,"MEAN_MOTION_DDOT":0},{"OBJECT_NAME":"ONEWEB-0048","OBJECT_ID":"2020-008Y","EPOCH":"2025-09-29T23:51:32.971968","MEAN_MOTION":13.1037601,"ECCENTRICITY":0.00016196,"INCLINATION":87.8747,"RA_OF_ASC_NODE":88.1754,"ARG_OF_PERICENTER":90.1015,"MEAN_ANOMALY":270.0298,"EPHEMERIS_TYPE":0,"CLASSIFICATION_TYPE":"U","NORAD_CAT_ID":45153,"ELEMENT_SET_NO":999,"REV_AT_EPOCH":27373,"BSTAR":-0.00057047605,"MEAN_MOTION_DOT":-1.86e-6,"MEAN_MOTION_DDOT":0},{"OBJECT_NAME":"ONEWEB-0049","OBJECT_ID":"2020-008Z","EPOCH":"2025-09-30T05:25:00.192288","MEAN_MOTION":13.10375841,"ECCENTRICITY":0.00020061,"INCLINATION":87.8744,"RA_OF_ASC_NODE":88.1207,"ARG_OF_PERICENTER":79.4322,"MEAN_ANOMALY":280.7031,"EPHEMERIS_TYPE":0,"CLASSIFICATION_TYPE":"U","NORAD_CAT_ID":45154,"ELEMENT_SET_NO":999,"REV_AT_EPOCH":27398,"BSTAR":-0.00020086324,"MEAN_MOTION_DOT":-5.7e-7,"MEAN_MOTION_DDOT":0},{"OBJECT_NAME":"ONEWEB-0051","OBJECT_ID":"2020-008AA","EPOCH":"2025-09-29T20:05:48.640128","MEAN_MOTION":13.11413854,"ECCENTRICITY":0.0001594,"INCLINATION":87.8785,"RA_OF_ASC_NODE":72.9284,"ARG_OF_PERICENTER":90.6593,"MEAN_ANOMALY":269.4718,"EPHEMERIS_TYPE":0,"CLASSIFICATION_TYPE":"U","NORAD_CAT_ID":45155,"ELEMENT_SET_NO":999,"REV_AT_EPOCH":27696,"BSTAR":0.00074541,"MEAN_MOTION_DOT":2.77e-6,"MEAN_MOTION_DDOT":0},{"OBJECT_NAME":"ONEWEB-0052","OBJECT_ID":"2020-008AB","EPOCH":"2025-09-29T23:47:57.698592","MEAN_MOTION":13.10377192,"ECCENTRICITY":0.0002072,"INCLINATION":87.8754,"RA_OF_ASC_NODE":88.1199,"ARG_OF_PERICENTER":76.5787,"MEAN_ANOMALY":283.5572,"EPHEMERIS_TYPE":0,"CLASSIFICATION_TYPE":"U","NORAD_CAT_ID":45156,"ELEMENT_SET_NO":999,"REV_AT_EPOCH":27386,"BSTAR":-0.0007062398,"MEAN_MOTION_DOT":-2.34e-6,"MEAN_MOTION_DDOT":0},{"OBJECT_NAME":"ONEWEB-0053","OBJECT_ID":"2020-008AC","EPOCH":"2025-09-30T04:52:43.453344","MEAN_MOTION":13.10371488,"ECCENTRICITY":0.00013424,"INCLINATION":87.8736,"RA_OF_ASC_NODE":88.1297,"ARG_OF_PERICENTER":82.0376,"MEAN_ANOMALY":278.0904,"EPHEMERIS_TYPE":0,"CLASSIFICATION_TYPE":"U","NORAD_CAT_ID":45157,"ELEMENT_SET_NO":999,"REV_AT_EPOCH":27386,"BSTAR":-0.001739523,"MEAN_MOTION_DOT":-5.95e-6,"MEAN_MOTION_DDOT":0},{"OBJECT_NAME":"ONEWEB-0054","OBJECT_ID":"2020-008AD","EPOCH":"2025-09-30T05:42:56.858976","MEAN_MOTION":13.10375907,"ECCENTRICITY":0.0001717,"INCLINATION":87.8739,"RA_OF_ASC_NODE":88.0959,"ARG_OF_PERICENTER":88.1076,"MEAN_ANOMALY":272.0248,"EPHEMERIS_TYPE":0,"CLASSIFICATION_TYPE":"U","NORAD_CAT_ID":45158,"ELEMENT_SET_NO":999,"REV_AT_EPOCH":27398,"BSTAR":0.0014583825,"MEAN_MOTION_DOT":5.22e-6,"MEAN_MOTION_DDOT":0},{"OBJECT_NAME":"ONEWEB-0056","OBJECT_ID":"2020-008AE","EPOCH":"2025-09-29T12:45:50.488704","MEAN_MOTION":13.10376775,"ECCENTRICITY":0.00016313,"INCLINATION":87.8743,"RA_OF_ASC_NODE":88.2346,"ARG_OF_PERICENTER":87.585,"MEAN_ANOMALY":272.5465,"EPHEMERIS_TYPE":0,"CLASSIFICATION_TYPE":"U","NORAD_CAT_ID":45159,"ELEMENT_SET_NO":999,"REV_AT_EPOCH":27404,"BSTAR":-0.00090498732,"MEAN_MOTION_DOT":-3.03e-6,"MEAN_MOTION_DDOT":0},{"OBJECT_NAME":"ONEWEB-0057","OBJECT_ID":"2020-008AF","EPOCH":"2025-09-30T05:26:11.956128","MEAN_MOTION":13.10377107,"ECCENTRICITY":0.00016541,"INCLINATION":87.8743,"RA_OF_ASC_NODE":88.1095,"ARG_OF_PERICENTER":82.0041,"MEAN_ANOMALY":278.1274,"EPHEMERIS_TYPE":0,"CLASSIFICATION_TYPE":"U","NORAD_CAT_ID":45160,"ELEMENT_SET_NO":999,"REV_AT_EPOCH":27430,"BSTAR":3.6767013e-5,"MEAN_MOTION_DOT":2.6e-7,"MEAN_MOTION_DDOT":0}]
