ONEWEB-0035             
1 45143U 20008N   25273.00991505  .00000640  00000+0  17973-2 0  9993
2 45143  87.8738  88.1657 0001615  92.9182 267.2130 13.10375491273860
ONEWEB-0036             
1 45144U 20008P   25273.22901842  .00000153  00000+0  40101-3 0  9992
2 45144  87.8757  88.0728 0001660  78.0305 282.1008 13.10376886274323
ONEWEB-0038             
1 45145U 20008Q   25272.99688675 -.00000058  00000+0 -19815-3 0  9996
2 45145  87.8793  72.8856 0000506 192.0210 168.0906 13.11416725276225
ONEWEB-0039             
1 45146U 20008R   25273.21160305 -.00000601  00000+0 -17576-2 0  9993
2 45146  87.8744  88.0926 0001498  72.4244 287.7047 13.10393184274111
ONEWEB-0040             
1 45147U 20008S   25273.20493127 -.00000529  00000+0 -15530-2 0  9991
2 45147  87.8740  88.1242 0001557  88.4561 271.6745 13.10372301273816
ONEWEB-0043             
1 45149U 20008U   25273.20660118 -.00000633  00000+0 -18508-2 0  9993
2 45149  87.8736  88.1059 0001700  73.8436 286.2879 13.10373073274131
ONEWEB-0044             
1 45150U 20008V   25273.23483441  .00000482  00000+0  13438-2 0  9997
2 45150  87.8742  88.0914 0001634  79.2881 280.8431 13.10376575274436
ONEWEB-0045             
1 45151U 20008W   25272.99166703  .00000178  00000+0  46587-3 0  9993
2 45151  87.8805  72.8620 0001440  86.3133 273.8160 13.11418375276301
ONEWEB-0047             
1 45152U 20008X   25273.22818382  .00000032  00000+0  54761-4 0  9991
2 45152  87.8744  88.1031 0001557  86.1635 273.9671 13.10378398274152
ONEWEB-0048             
1 45153U 20008Y   25272.99413162 -.00000186  00000+0 -57048-3 0  9994
2 45153  87.8747  88.1754 0001619  90.1015 270.0298 13.10376010273739
ONEWEB-0049             
1 45154U 20008Z   25273.22569667 -.00000057  00000+0 -20086-3 0  9993
2 45154  87.8744  88.1207 0002006  79.4322 280.7031 13.10375841273983
ONEWEB-0051             
1 45155U 20008AA  25272.83736852  .00000277  00000+0  74541-3 0  9999
2 45155  87.8785  72.9284 0001594  90.6593 269.4718 13.11413854276966
ONEWEB-0052             
1 45156U 20008AB  25272.99164003 -.00000234  00000+0 -70624-3 0  9993
2 45156  87.8754  88.1199 0002072  76.5787 283.5572 13.10377192273861
ONEWEB-0053             
1 45157U 20008AC  25273.20328071 -.00000595  00000+0 -17395-2 0  9991
2 45157  87.8736  88.1297 0001342  82.0376 278.0904 13.10371488273866
ONEWEB-0054             
1 45158U 20008AD  25273.23815809  .00000522  00000+0  14584-2 0  9990
2 45158  87.8739  88.0959 0001717  88.1076 272.0248 13.10375907273982
ONEWEB-0056             
1 45159U 20008AE  25272.53183436 -.00000303  00000+0 -90499-3 0  9996
2 45159  87.8743  88.2346 0001631  87.5850 272.5465 13.10376775274046
ONEWEB-0057             
1 45160U 20008AF  25273.22652727  .00000026  00000+0  36767-4 0  9998
2 45160  87.8743  88.1095 0001654  82.0041 278.1274 13.10377107274304
